{
  "norad_id": 63575,
  "name": "STARLINK-33732",
  "history": [
    {
      "epoch": "2026-03-28T17:59:21.382656",
      "apogee_km": 483.92451982188413,
      "perigee_km": 481.97926389926306,
      "latitude_deg": -40.44409695762251,
      "longitude_deg": -110.54290815978311,
      "semi_major_axis_km": 6861.088891860573,
      "eccentricity": 0.00014176,
      "inclination_deg": 43.0012,
      "raan_deg": 214.2102,
      "arg_perigee_deg": 257.5532,
      "mean_anomaly_deg": 102.5161,
      "mean_motion_rev_day": 15.27612463
    }
  ]
}